{"type": "FeatureCollection", "features": [ {"type": "Feature", "properties": {"norad_id": 30252, "name": "FENGYUN 1C DEB", "group": "fengyun-1c-debris", "lat": 68.80502598971667, "lon": -158.65373427631522, "alt_km": 891.9367116274361, "timestamp": "2025-12-08T19:31:49.084497+00:00", "meta": {"OBJECT_NAME": "FENGYUN 1C DEB", "OBJECT_ID": "1999-025XM", "EPOCH": "2025-12-08T00:31:50.246112", "MEAN_MOTION": 14.09698457, "ECCENTRICITY": 0.00658669, "INCLINATION": 98.7434, "RA_OF_ASC_NODE": 357.195, "ARG_OF_PERICENTER": 255.1542, "MEAN_ANOMALY": 159.3068, "EPHEMERIS_TYPE": 0, "CLASSIFICATION_TYPE": "U", "NORAD_CAT_ID": 30252, "ELEMENT_SET_NO": 999, "REV_AT_EPOCH": 96899, "BSTAR": 0.00065535988, "MEAN_MOTION_DOT": 1.13e-05, "MEAN_MOTION_DDOT": 0}, "tle": {"line1": "1 30252U 99025XM  25342.02210933  .00001130  00000+0  65536-3 0  9995", "line2": "2 30252  98.7434 357.1950 0065866 255.1542 159.3068 14.09698457968990"}}, "geometry": {"type": "Point", "coordinates": [-158.65373427631522, 68.80502598971667]}}, {"type": "Feature", "properties": {"norad_id": 30253, "name": "FENGYUN 1C DEB", "group": "fengyun-1c-debris", "lat": 57.73694864522544, "lon": 57.08286423044648, "alt_km": 820.4260113084783, "timestamp": "2025-12-08T19:31:49.084506+00:00", "meta": {"OBJECT_NAME": "FENGYUN 1C DEB", "OBJECT_ID": "1999-025XN", "EPOCH": "2025-12-08T05:31:16.299264", "MEAN_MOTION": 13.73157499, "ECCENTRICITY": 0.0221805, "INCLINATION": 98.7524, "RA_OF_ASC_NODE": 70.6733, "ARG_OF_PERICENTER": 53.2966, "MEAN_ANOMALY": 1.3165, "EPHEMERIS_TYPE": 0, "CLASSIFICATION_TYPE": "U", "NORAD_CAT_ID": 30253, "ELEMENT_SET_NO": 999, "REV_AT_EPOCH": 93952, "BSTAR": 0.0025199659, "MEAN_MOTION_DOT": 2.746e-05, "MEAN_MOTION_DDOT": 0}, "tle": {"line1": "1 30253U 99025XN  25342.23004976  .00002746  00000+0  25200-2 0  9994", "line2": "2 30253  98.7524  70.6733 0221805  53.2966   1.3165 13.73157499939528"}}, "geometry": {"type": "Point", "coordinates": [57.08286423044648, 57.73694864522544]}}, {"type": "Feature", "properties": {"norad_id": 30257, "name": "FENGYUN 1C DEB", "group": "fengyun-1c-debris", "lat": 68.92717902714593, "lon": -174.9536555421451, "alt_km": 810.4350853460619, "timestamp": "2025-12-08T19:31:49.084516+00:00", "meta": {"OBJECT_NAME": "FENGYUN 1C DEB", "OBJECT_ID": "1999-025XS", "EPOCH": "2025-12-07T22:52:52.299840", "MEAN_MOTION": 14.09719828, "ECCENTRICITY": 0.00596315, "INCLINATION": 98.7496, "RA_OF_ASC_NODE": 340.6521, "ARG_OF_PERICENTER": 112.5672, "MEAN_ANOMALY": 312.667, "EPHEMERIS_TYPE": 0, "CLASSIFICATION_TYPE": "U", "NORAD_CAT_ID": 30257, "ELEMENT_SET_NO": 999, "REV_AT_EPOCH": 97150, "BSTAR": 0.00023623583, "MEAN_MOTION_DOT": 3.79e-06, "MEAN_MOTION_DDOT": 0}, "tle": {"line1": "1 30257U 99025XS  25341.95338310  .00000379  00000+0  23624-3 0  9997", "line2": "2 30257  98.7496 340.6521 0059631 112.5672 312.6670 14.09719828971507"}}, "geometry": {"type": "Point", "coordinates": [-174.9536555421451, 68.92717902714593]}}, {"type": "Feature", "properties": {"norad_id": 30259, "name": "FENGYUN 1C DEB", "group": "fengyun-1c-debris", "lat": -71.77652872233797, "lon": -137.7086517818383, "alt_km": 557.0254526707613, "timestamp": "2025-12-08T19:31:49.084525+00:00", "meta": {"OBJECT_NAME": "FENGYUN 1C DEB", "OBJECT_ID": "1999-025XU", "EPOCH": "2025-12-08T02:14:18.209184", "MEAN_MOTION": 14.51467515, "ECCENTRICITY": 0.02421581, "INCLINATION": 98.7615, "RA_OF_ASC_NODE": 193.6081, "ARG_OF_PERICENTER": 282.4454, "MEAN_ANOMALY": 200.7339, "EPHEMERIS_TYPE": 0, "CLASSIFICATION_TYPE": "U", "NORAD_CAT_ID": 30259, "ELEMENT_SET_NO": 999, "REV_AT_EPOCH": 99407, "BSTAR": 0.00065611677, "MEAN_MOTION_DOT": 3.778e-05, "MEAN_MOTION_DDOT": 0}, "tle": {"line1": "1 30259U 99025XU  25342.09326631  .00003778  00000+0  65612-3 0  9997", "line2": "2 30259  98.7615 193.6081 0242158 282.4454 200.7339 14.51467515994078"}}, "geometry": {"type": "Point", "coordinates": [-137.7086517818383, -71.77652872233797]}}, {"type": "Feature", "properties": {"norad_id": 30263, "name": "FENGYUN 1C DEB", "group": "fengyun-1c-debris", "lat": 36.764507486277864, "lon": 91.3238113316457, "alt_km": 791.3310583015746, "timestamp": "2025-12-08T19:31:49.084534+00:00", "meta": {"OBJECT_NAME": "FENGYUN 1C DEB", "OBJECT_ID": "1999-025XY", "EPOCH": "2025-12-08T07:38:49.453152", "MEAN_MOTION": 14.01454787, "ECCENTRICITY": 0.01448033, "INCLINATION": 98.9358, "RA_OF_ASC_NODE": 97.5896, "ARG_OF_PERICENTER": 12.5767, "MEAN_ANOMALY": 47.3797, "EPHEMERIS_TYPE": 0, "CLASSIFICATION_TYPE": "U", "NORAD_CAT_ID": 30263, "ELEMENT_SET_NO": 999, "REV_AT_EPOCH": 95963, "BSTAR": 0.0014963301, "MEAN_MOTION_DOT": 2.433e-05, "MEAN_MOTION_DDOT": 0}, "tle": {"line1": "1 30263U 99025XY  25342.31862793  .00002433  00000+0  14963-2 0  9990", "line2": "2 30263  98.9358  97.5896 0144803  12.5767  47.3797 14.01454787959630"}}, "geometry": {"type": "Point", "coordinates": [91.3238113316457, 36.764507486277864]}}, {"type": "Feature", "properties": {"norad_id": 30264, "name": "FENGYUN 1C DEB", "group": "fengyun-1c-debris", "lat": 41.218892198123406, "lon": -134.0788995543231, "alt_km": 937.0395412312782, "timestamp": "2025-12-08T19:31:49.084544+00:00", "meta": {"OBJECT_NAME": "FENGYUN 1C DEB", "OBJECT_ID": "1999-025XZ", "EPOCH": "2025-12-08T03:38:27.117600", "MEAN_MOTION": 14.07610272, "ECCENTRICITY": 0.01068529, "INCLINATION": 98.9699, "RA_OF_ASC_NODE": 37.3106, "ARG_OF_PERICENTER": 300.3213, "MEAN_ANOMALY": 85.0977, "EPHEMERIS_TYPE": 0, "CLASSIFICATION_TYPE": "U", "NORAD_CAT_ID": 30264, "ELEMENT_SET_NO": 999, "REV_AT_EPOCH": 96493, "BSTAR": 0.0016685262, "MEAN_MOTION_DOT": 2.923e-05, "MEAN_MOTION_DDOT": 0}, "tle": {"line1": "1 30264U 99025XZ  25342.15170275  .00002923  00000+0  16685-2 0  9997", "line2": "2 30264  98.9699  37.3106 0106852 300.3213  85.0977 14.07610272964938"}}, "geometry": {"type": "Point", "coordinates": [-134.0788995543231, 41.218892198123406]}}, {"type": "Feature", "properties": {"norad_id": 30265, "name": "FENGYUN 1C DEB", "group": "fengyun-1c-debris", "lat": 19.57326040082365, "lon": -85.1220574652863, "alt_km": 712.2328350277849, "timestamp": "2025-12-08T19:31:49.084553+00:00", "meta": {"OBJECT_NAME": "FENGYUN 1C DEB", "OBJECT_ID": "1999-025YA", "EPOCH": "2025-12-07T13:27:33.255648", "MEAN_MOTION": 14.58454241, "ECCENTRICITY": 0.00284212, "INCLINATION": 98.6628, "RA_OF_ASC_NODE": 90.4653, "ARG_OF_PERICENTER": 29.3388, "MEAN_ANOMALY": 35.6689, "EPHEMERIS_TYPE": 0, "CLASSIFICATION_TYPE": "U", "NORAD_CAT_ID": 30265, "ELEMENT_SET_NO": 999, "REV_AT_EPOCH": 98326, "BSTAR": 0.0037464511, "MEAN_MOTION_DOT": 0.0001747, "MEAN_MOTION_DDOT": 0}, "tle": {"line1": "1 30265U 99025YA  25341.56080157  .00017470  00000+0  37465-2 0  9993", "line2": "2 30265  98.6628  90.4653 0028421  29.3388  35.6689 14.58454241983267"}}, "geometry": {"type": "Point", "coordinates": [-85.1220574652863, 19.57326040082365]}}, {"type": "Feature", "properties": {"norad_id": 30266, "name": "FENGYUN 1C DEB", "group": "fengyun-1c-debris", "lat": 65.20788181038792, "lon": 26.80571298749182, "alt_km": 776.7045003543935, "timestamp": "2025-12-08T19:31:49.084562+00:00", "meta": {"OBJECT_NAME": "FENGYUN 1C DEB", "OBJECT_ID": "1999-025YB", "EPOCH": "2025-12-08T04:13:28.856352", "MEAN_MOTION": 14.15049672, "ECCENTRICITY": 0.00830449, "INCLINATION": 99.0423, "RA_OF_ASC_NODE": 46.3265, "ARG_OF_PERICENTER": 78.9622, "MEAN_ANOMALY": 341.1367, "EPHEMERIS_TYPE": 0, "CLASSIFICATION_TYPE": "U", "NORAD_CAT_ID": 30266, "ELEMENT_SET_NO": 999, "REV_AT_EPOCH": 96725, "BSTAR": 0.0016466305, "MEAN_MOTION_DOT": 3.254e-05, "MEAN_MOTION_DDOT": 0}, "tle": {"line1": "1 30266U 99025YB  25342.17602843  .00003254  00000+0  16466-2 0  9997", "line2": "2 30266  99.0423  46.3265 0083044  78.9622 341.1367 14.15049672967258"}}, "geometry": {"type": "Point", "coordinates": [26.80571298749182, 65.20788181038792]}}, {"type": "Feature", "properties": {"norad_id": 30267, "name": "FENGYUN 1C DEB", "group": "fengyun-1c-debris", "lat": -40.073331560248555, "lon": -133.5783522653635, "alt_km": 784.6085120620583, "timestamp": "2025-12-08T19:31:49.084571+00:00", "meta": {"OBJECT_NAME": "FENGYUN 1C DEB", "OBJECT_ID": "1999-025YC", "EPOCH": "2025-12-08T03:18:38.778912", "MEAN_MOTION": 14.2355668, "ECCENTRICITY": 0.00587217, "INCLINATION": 98.8495, "RA_OF_ASC_NODE": 53.2732, "ARG_OF_PERICENTER": 256.2832, "MEAN_ANOMALY": 103.1804, "EPHEMERIS_TYPE": 0, "CLASSIFICATION_TYPE": "U", "NORAD_CAT_ID": 30267, "ELEMENT_SET_NO": 999, "REV_AT_EPOCH": 97229, "BSTAR": 0.0020995378, "MEAN_MOTION_DOT": 4.822e-05, "MEAN_MOTION_DDOT": 0}, "tle": {"line1": "1 30267U 99025YC  25342.13794883  .00004822  00000+0  20995-2 0  9994", "line2": "2 30267  98.8495  53.2732 0058721 256.2832 103.1804 14.23556680972292"}}, "geometry": {"type": "Point", "coordinates": [-133.5783522653635, -40.073331560248555]}}, {"type": "Feature", "properties": {"norad_id": 30270, "name": "FENGYUN 1C DEB", "group": "fengyun-1c-debris", "lat": 23.477852487675893, "lon": -7.1576668572716, "alt_km": 858.7945982082738, "timestamp": "2025-12-08T19:31:49.084580+00:00", "meta": {"OBJECT_NAME": "FENGYUN 1C DEB", "OBJECT_ID": "1999-025YF", "EPOCH": "2025-12-08T07:34:54.814944", "MEAN_MOTION": 14.11268166, "ECCENTRICITY": 0.00072135, "INCLINATION": 98.7024, "RA_OF_ASC_NODE": 356.1743, "ARG_OF_PERICENTER": 171.1979, "MEAN_ANOMALY": 204.7719, "EPHEMERIS_TYPE": 0, "CLASSIFICATION_TYPE": "U", "NORAD_CAT_ID": 30270, "ELEMENT_SET_NO": 999, "REV_AT_EPOCH": 97299, "BSTAR": 0.00021779285, "MEAN_MOTION_DOT": 3.51e-06, "MEAN_MOTION_DDOT": 0}, "tle": {"line1": "1 30270U 99025YF  25342.31591221  .00000351  00000+0  21779-3 0  9994", "line2": "2 30270  98.7024 356.1743 0007213 171.1979 204.7719 14.11268166972993"}}, "geometry": {"type": "Point", "coordinates": [-7.1576668572716, 23.477852487675893]}}]}